NORAD_CAT_ID,OBJECT_NAME,OBJECT_TYPE,EPOCH,MEAN_MOTION,ECCENTRICITY,INCLINATION,RA_OF_ASC_NODE,ARG_OF_PERICENTER,MEAN_ANOMALY,BSTAR,MEAN_MOTION_DOT,MEAN_MOTION_DDOT,TLE_LINE0,TLE_LINE1,TLE_LINE2,SEMIMAJOR_AXIS,PERIOD,APOGEE,PERIGEE,DECAYED
52616.0,STARLINK-4015,PAYLOAD,2023-05-28 05:34:27,15.08839911,7.89e-05,53.2157,152.1747,76.2269,283.8811,1.5938e-05,-3.4e-07,0.0,0 STARLINK-4015,1 52616U 22052U   23148.23226518 -.00000034  00000-0  15938-4 0  9996,2 52616  53.2157 152.1747 0000789  76.2269 283.8811 15.08839911 57545,6917.881,95.438,540.291,539.2,0.0
52616.0,STARLINK-4015,PAYLOAD,2023-05-28 16:42:09,15.08838842,7.97e-05,53.2156,150.093,74.419,285.689,2.2952e-05,7.8e-07,0.0,0 STARLINK-4015,1 52616U 22052U   23148.69594567  .00000078  00000-0  22952-4 0  9999,2 52616  53.2156 150.0930 0000797  74.4190 285.6890 15.08838842 57984,6917.884,95.438,540.3,539.198,0.0
52616.0,STARLINK-4015,PAYLOAD,2023-05-29 05:25:14,15.08838261,8.09e-05,53.2159,147.7141,73.8229,286.2852,4.4604e-05,4.22e-06,0.0,0 STARLINK-4015,1 52616U 22052U   23149.22586598  .00000422  00000-0  44604-4 0  9995,2 52616  53.2159 147.7141 0000809  73.8229 286.2852 15.08838261 57692,6917.886,95.438,540.31,539.191,0.0
52616.0,STARLINK-4015,PAYLOAD,2023-05-29 19:43:43,15.08836162,8.25e-05,53.216,145.0379,75.3767,284.7317,3.2916e-05,2.36e-06,0.0,0 STARLINK-4015,1 52616U 22052U   23149.82202851  .00000236  00000-0  32916-4 0  9994,2 52616  53.2160 145.0379 0000825  75.3767 284.7317 15.08836162 57787,6917.892,95.438,540.328,539.186,0.0
52616.0,STARLINK-4015,PAYLOAD,2023-05-29 22:54:29,15.0883602,8.25e-05,53.2159,144.4433,75.3052,284.8032,3.08e-05,2.02e-06,0.0,0 STARLINK-4015,1 52616U 22052U   23149.95450894  .00000202  00000-0  30800-4 0  9993,2 52616  53.2159 144.4433 0000825  75.3052 284.8032 15.08836020 58178,6917.893,95.438,540.328,539.187,0.0
52616.0,STARLINK-4015,PAYLOAD,2023-05-30 08:26:48,15.08837352,8.25e-05,53.216,142.6591,75.7269,284.3814,3.8109e-05,3.19e-06,0.0,0 STARLINK-4015,1 52616U 22052U   23150.35194860  .00000319  00000-0  38109-4 0  9996,2 52616  53.2160 142.6591 0000825  75.7269 284.3814 15.08837352 57866,6917.888,95.438,540.324,539.183,0.0
52616.0,STARLINK-4015,PAYLOAD,2023-05-31 06:42:12,15.08840795,8.47e-05,53.2162,138.4961,75.268,284.8406,6.04e-05,6.74e-06,0.0,0 STARLINK-4015,1 52616U 22052U   23151.27930722  .00000674  00000-0  60400-4 0  9996,2 52616  53.2162 138.4961 0000847  75.2680 284.8406 15.08840795 58372,6917.878,95.438,540.329,539.157,0.0
52616.0,STARLINK-4015,PAYLOAD,2023-05-31 22:36:03,15.0883513,8.46e-05,53.2162,135.5225,77.8587,282.25,2.6158e-05,1.29e-06,0.0,0 STARLINK-4015,1 52616U 22052U   23151.94171245  .00000129  00000-0  26158-4 0  9994,2 52616  53.2162 135.5225 0000846  77.8587 282.2500 15.08835130 58101,6917.895,95.438,540.346,539.175,0.0
52616.0,STARLINK-4015,PAYLOAD,2023-06-01 06:32:59,15.08837955,8.98e-05,53.2162,134.0357,77.0134,283.0959,5.0537e-05,5.17e-06,0.0,0 STARLINK-4015,1 52616U 22052U   23152.27291093  .00000517  00000-0  50537-4 0  9994,2 52616  53.2162 134.0357 0000898  77.0134 283.0959 15.08837955 58157,6917.887,95.438,540.373,539.13,0.0
52616.0,STARLINK-4015,PAYLOAD,2023-06-02 07:59:09,15.08846591,9.83e-05,53.2162,129.2781,76.9903,283.1199,7.5177e-05,9.09e-06,0.0,0 STARLINK-4015,1 52616U 22052U   23153.33274410  .00000909  00000-0  75177-4 0  9998,2 52616  53.2162 129.2781 0000983  76.9903 283.1199 15.08846591 58682,6917.86,95.437,540.405,539.045,0.0
52616.0,STARLINK-4015,PAYLOAD,2023-06-02 15:56:05,15.08840442,0.0001007,53.2159,127.791,77.5926,282.5179,4.8335e-05,4.82e-06,0.0,0 STARLINK-4015,1 52616U 22052U   23153.66394866  .00000482  00000-0  48335-4 0  9994,2 52616  53.2159 127.7910 0001007  77.5926 282.5179 15.08840442 58731,6917.879,95.438,540.441,539.047,0.0
52616.0,STARLINK-4015,PAYLOAD,2023-06-03 03:03:47,15.08834591,0.0001039,53.2161,125.7096,78.4464,281.6645,2.8393e-05,1.64e-06,0.0,0 STARLINK-4015,1 52616U 22052U   23154.12763382  .00000164  00000-0  28393-4 0  9998,2 52616  53.2161 125.7096 0001039  78.4464 281.6645 15.08834591 58803,6917.897,95.438,540.481,539.043,0.0
52616.0,STARLINK-4015,PAYLOAD,2023-06-03 04:39:10,15.08837945,0.000104,53.2164,125.4106,91.5193,268.5919,2.9212e-05,1.77e-06,0.0,0 STARLINK-4015,1 52616U 22052U   23154.19387159  .00000177  00000-0  29212-4 0  9994,2 52616  53.2164 125.4106 0001040  91.5193 268.5919 15.08837945 58446,6917.887,95.438,540.471,539.032,0.0
52616.0,STARLINK-4015,PAYLOAD,2023-06-03 22:08:25,15.08839705,0.0001092,53.2166,122.139,94.9041,265.2076,-1.0845e-05,-4.6e-06,0.0,0 STARLINK-4015,1 52616U 22052U   23154.92251237 -.00000460  00000-0 -10845-4 0  9991,2 52616  53.2166 122.1390 0001092  94.9041 265.2076 15.08839705 58559,6917.881,95.438,540.502,538.991,0.0
52616.0,STARLINK-4015,PAYLOAD,2023-06-04 04:29:57,15.08841785,0.0001089,53.2165,120.9506,90.3901,269.7216,1.1932e-05,-9.8e-07,0.0,0 STARLINK-4015,1 52616U 22052U   23155.18747015 -.00000098  00000-0  11932-4 0  9998,2 52616  53.2165 120.9506 0001089  90.3901 269.7216 15.08841785 58965,6917.875,95.437,540.493,538.987,0.0
52616.0,STARLINK-4015,PAYLOAD,2023-06-05 13:53:03,15.0883712,0.0001026,53.2163,114.7072,87.401,272.71,4.8544e-05,4.85e-06,0.0,0 STARLINK-4015,1 52616U 22052U   23156.57851337  .00000485  00000-0  48544-4 0  9993,2 52616  53.2163 114.7072 0001026  87.4010 272.7100 15.08837120 58808,6917.889,95.438,540.464,539.044,0.0
52616.0,STARLINK-4015,PAYLOAD,2023-06-05 20:14:36,15.08832779,0.0001007,53.2158,113.5199,97.9434,262.1672,3.1162e-05,2.08e-06,0.0,0 STARLINK-4015,1 52616U 22052U   23156.84347722  .00000208  00000-0  31162-4 0  9992,2 52616  53.2158 113.5199 0001007  97.9434 262.1672 15.08832779 58840,6917.902,95.438,540.464,539.071,0.0
52616.0,STARLINK-4015,PAYLOAD,2023-06-06 01:00:46,15.08829242,0.0001003,53.2163,112.6267,87.2879,272.8228,-2.5215e-05,-6.89e-06,0.0,0 STARLINK-4015,1 52616U 22052U   23157.04220263 -.00000689  00000-0 -25215-4 0  9992,2 52616  53.2163 112.6267 0001003  87.2879 272.8228 15.08829242 59244,6917.913,95.438,540.472,539.084,0.0
52616.0,STARLINK-4015,PAYLOAD,2023-06-06 07:22:18,15.08833789,0.0001111,53.2165,111.4368,89.2928,270.8191,6.1045e-06,-1.91e-06,0.0,0 STARLINK-4015,1 52616U 22052U   23157.30715999 -.00000191  00000-0  61045-5 0  9995,2 52616  53.2165 111.4368 0001111  89.2928 270.8191 15.08833789 58913,6917.899,95.438,540.533,538.996,0.0
52616.0,STARLINK-4015,PAYLOAD,2023-06-07 05:37:42,15.08844219,0.0001125,53.2168,107.2733,87.8531,272.259,4.6461e-05,4.52e-06,0.0,0 STARLINK-4015,1 52616U 22052U   23158.23451444  .00000452  00000-0  46461-4 0  9993,2 52616  53.2168 107.2733 0001125  87.8531 272.2590 15.08844219 59420,6917.867,95.437,540.511,538.954,0.0
52616.0,STARLINK-4015,PAYLOAD,2023-06-07 21:31:34,15.08831875,0.000114,53.2172,104.2996,84.3568,275.7554,7.4287e-05,8.94e-06,0.0,0 STARLINK-4015,1 52616U 22052U   23158.89692280  .00000894  00000-0  74287-4 0  9997,2 52616  53.2172 104.2996 0001140  84.3568 275.7554 15.08831875 59154,6917.905,95.438,540.559,538.982,0.0
52616.0,STARLINK-4015,PAYLOAD,2023-06-08 00:42:20,15.08834226,0.0001139,53.2174,103.7049,84.7018,275.4104,9.093e-05,1.159e-05,0.0,0 STARLINK-4015,1 52616U 22052U   23159.02940139  .00001159  00000-0  90930-4 0  9990,2 52616  53.2174 103.7049 0001139  84.7018 275.4104 15.08834226 59545,6917.898,95.438,540.551,538.975,0.0
52616.0,STARLINK-4015,PAYLOAD,2023-06-08 05:28:29,15.08839379,0.0001167,53.2175,102.8127,85.8871,274.2255,9.0152e-05,1.147e-05,0.0,0 STARLINK-4015,1 52616U 22052U   23159.22811873  .00001147  00000-0  90152-4 0  9997,2 52616  53.2175 102.8127 0001167  85.8871 274.2255 15.08839379 59204,6917.882,95.438,540.555,538.94,0.0
52616.0,STARLINK-4015,PAYLOAD,2023-06-09 05:19:16,15.08843598,0.00013,53.2175,98.3511,94.4931,265.6209,3.9567e-05,3.42e-06,0.0,0 STARLINK-4015,1 52616U 22052U   23160.22171905  .00000342  00000-0  39567-4 0  9993,2 52616  53.2175  98.3511 0001300  94.4931 265.6209 15.08843598 59720,6917.869,95.437,540.634,538.835,0.0
52616.0,STARLINK-4015,PAYLOAD,2023-06-09 13:16:12,15.08841715,0.0001238,53.2176,96.8634,97.0055,263.1078,-4.4345e-06,-3.58e-06,0.0,0 STARLINK-4015,1 52616U 22052U   23160.55292090 -.00000358  00000-0 -44345-5 0  9998,2 52616  53.2176  96.8634 0001238  97.0055 263.1078 15.08841715 59407,6917.875,95.437,540.597,538.884,0.0
52616.0,STARLINK-4015,PAYLOAD,2023-06-10 13:06:59,15.08836178,0.0001356,53.2174,92.3989,114.5529,245.5604,2.6563e-05,1.35e-06,0.0,0 STARLINK-4015,1 52616U 22052U   23161.54652250  .00000135  00000-0  26563-4 0  9998,2 52616  53.2174  92.3989 0001356 114.5529 245.5604 15.08836178 59553,6917.892,95.438,540.695,538.819,0.0
52616.0,STARLINK-4015,PAYLOAD,2023-06-10 17:53:09,15.08839723,0.0001188,53.2176,91.5083,105.4232,254.6891,-4.0817e-05,-9.37e-06,0.0,0 STARLINK-4015,1 52616U 22052U   23161.74524444 -.00000937  00000-0 -40817-4 0  9993,2 52616  53.2176  91.5083 0001188 105.4232 254.6891 15.08839723 59585,6917.881,95.438,540.568,538.924,0.0
52616.0,STARLINK-4015,PAYLOAD,2023-06-11 05:00:50,15.0884122,0.0001284,53.2171,89.4306,86.4621,273.6518,1.4154e-05,-6.3e-07,0.0,0 STARLINK-4015,1 52616U 22052U   23162.20892270 -.00000063  00000-0  14154-4 0  9994,2 52616  53.2171  89.4306 0001284  86.4621 273.6518 15.08841220 59651,6917.877,95.437,540.63,538.853,0.0
52616.0,STARLINK-4015,PAYLOAD,2023-06-12 01:40:51,15.08842862,0.0001251,53.2176,85.5654,85.0359,275.0776,5.235e-05,5.45e-06,0.0,0 STARLINK-4015,1 52616U 22052U   23163.07003953  .00000545  00000-0  52350-4 0  9996,2 52616  53.2176  85.5654 0001251  85.0359 275.0776 15.08842862 60158,6917.872,95.437,540.602,538.871,0.0
52616.0,STARLINK-4015,PAYLOAD,2023-06-13 01:31:39,15.08831682,0.0001182,53.2171,81.1027,82.4366,277.6761,1.4672e-05,-5.4e-07,0.0,0 STARLINK-4015,1 52616U 22052U   23164.06364931 -.00000054  00000-0  14672-4 0  9993,2 52616  53.2171  81.1027 0001182  82.4366 277.6761 15.08831682 60308,6917.906,95.438,540.589,538.953,0.0
